CTC1_L_00133001-01
1 10000U 23316KU  26075.70031250  .00000000  00000+0  00000-0 0  9993
2 10000  45.0000   0.0000 0000000   0.0000   0.0000 14.15679949    18
CTC1_L_00133001-02
1 10001U 22384PN  26075.70031250  .00000000  00000+0  00000-0 0  9998
2 10001  45.0000   0.0000 0000000   0.0000  90.0000 14.15679949    18
CTC1_L_00133001-03
1 10002U 25142GH  26075.70031250  .00000000  00000+0  00000-0 0  9994
2 10002  45.0000   0.0000 0000000   0.0000 180.0000 14.15679949    19
CTC1_L_00133001-04
1 10003U 22587DX  26075.70031250  .00000000  00000+0  00000-0 0  9995
2 10003  45.0000   0.0000 0000000   0.0000 270.0000 14.15679949    10
CTC1_L_00133002-01
1 10004U 22823KK  26075.70031250  .00000000  00000+0  00000-0 0  9999
2 10004  45.0000  12.0000 0000000   0.0000  12.0000 14.15679949    18
CTC1_L_00133002-02
1 10005U 26928VK  26075.70031250  .00000000  00000+0  00000-0 0  9990
2 10005  45.0000  12.0000 0000000   0.0000 102.0000 14.15679949    19
CTC1_L_00133002-03
1 10006U 25718VI  26075.70031250  .00000000  00000+0  00000-0 0  9997
2 10006  45.0000  12.0000 0000000   0.0000 192.0000 14.15679949    19
CTC1_L_00133002-04
1 10007U 22597JQ  26075.70031250  .00000000  00000+0  00000-0 0  9990
2 10007  45.0000  12.0000 0000000   0.0000 282.0000 14.15679949    10
CTC1_L_00133003-01
1 10008U 24186TL  26075.70031250  .00000000  00000+0  00000-0 0  9997
2 10008  45.0000  24.0000 0000000   0.0000  24.0000 14.15679949    18
CTC1_L_00133003-02
1 10009U 25131JW  26075.70031250  .00000000  00000+0  00000-0 0  9999
2 10009  45.0000  24.0000 0000000   0.0000 114.0000 14.15679949    19
CTC1_L_00133003-03
1 10010U 23308AB  26075.70031250  .00000000  00000+0  00000-0 0  9995
2 10010  45.0000  24.0000 0000000   0.0000 204.0000 14.15679949    11
CTC1_L_00133003-04
1 10011U 24469RM  26075.70031250  .00000000  00000+0  00000-0 0  9995
2 10011  45.0000  24.0000 0000000   0.0000 294.0000 14.15679949    11
CTC1_L_00133004-01
1 10012U 26198QD  26075.70031250  .00000000  00000+0  00000-0 0  9997
2 10012  45.0000  36.0000 0000000   0.0000  36.0000 14.15679949    19
CTC1_L_00133004-02
1 10013U 23845NB  26075.70031250  .00000000  00000+0  00000-0 0  9994
2 10013  45.0000  36.0000 0000000   0.0000 126.0000 14.15679949    10
CTC1_L_00133004-03
1 10014U 23260LG  26075.70031250  .00000000  00000+0  00000-0 0  9996
2 10014  45.0000  36.0000 0000000   0.0000 216.0000 14.15679949    11
CTC1_L_00133004-04
1 10015U 23187SA  26075.70031250  .00000000  00000+0  00000-0 0  9995
2 10015  45.0000  36.0000 0000000   0.0000 306.0000 14.15679949    12
CTC1_L_00133005-01
1 10016U 24537NQ  26075.70031250  .00000000  00000+0  00000-0 0  9996
2 10016  45.0000  48.0000 0000000   0.0000  48.0000 14.15679949    19
CTC1_L_00133005-02
1 10017U 25840QN  26075.70031250  .00000000  00000+0  00000-0 0  9995
2 10017  45.0000  48.0000 0000000   0.0000 138.0000 14.15679949    10
CTC1_L_00133005-03
1 10018U 23037XR  26075.70031250  .00000000  00000+0  00000-0 0  9992
2 10018  45.0000  48.0000 0000000   0.0000 228.0000 14.15679949    11
CTC1_L_00133005-04
1 10019U 22083KL  26075.70031250  .00000000  00000+0  00000-0 0  9993
2 10019  45.0000  48.0000 0000000   0.0000 318.0000 14.15679949    12
CTC1_L_00133006-01
1 10020U 22556KF  26075.70031250  .00000000  00000+0  00000-0 0  9990
2 10020  45.0000  60.0000 0000000   0.0000  60.0000 14.15679949    12
CTC1_L_00133006-02
1 10021U 24516YY  26075.70031250  .00000000  00000+0  00000-0 0  9999
2 10021  45.0000  60.0000 0000000   0.0000 150.0000 14.15679949    13
CTC1_L_00133006-03
1 10022U 22615JT  26075.70031250  .00000000  00000+0  00000-0 0  9998
2 10022  45.0000  60.0000 0000000   0.0000 240.0000 14.15679949    14
CTC1_L_00133006-04
1 10023U 22677PG  26075.70031250  .00000000  00000+0  00000-0 0  9997
2 10023  45.0000  60.0000 0000000   0.0000 330.0000 14.15679949    15
CTC1_L_00133007-01
1 10024U 22651VQ  26075.70031250  .00000000  00000+0  00000-0 0  9990
2 10024  45.0000  72.0000 0000000   0.0000  72.0000 14.15679949    12
CTC1_L_00133007-02
1 10025U 25027GE  26075.70031250  .00000000  00000+0  00000-0 0  9991
2 10025  45.0000  72.0000 0000000   0.0000 162.0000 14.15679949    13
CTC1_L_00133007-03
1 10026U 23780VZ  26075.70031250  .00000000  00000+0  00000-0 0  9996
2 10026  45.0000  72.0000 0000000   0.0000 252.0000 14.15679949    14
CTC1_L_00133007-04
1 10027U 26849MW  26075.70031250  .00000000  00000+0  00000-0 0  9996
2 10027  45.0000  72.0000 0000000   0.0000 342.0000 14.15679949    15
CTC1_L_00133008-01
1 10028U 23231GH  26075.70031250  .00000000  00000+0  00000-0 0  9999
2 10028  45.0000  84.0000 0000000   0.0000  84.0000 14.15679949    12
CTC1_L_00133008-02
1 10029U 25774VL  26075.70031250  .00000000  00000+0  00000-0 0  9994
2 10029  45.0000  84.0000 0000000   0.0000 174.0000 14.15679949    13
CTC1_L_00133008-03
1 10030U 24001SG  26075.70031250  .00000000  00000+0  00000-0 0  9998
2 10030  45.0000  84.0000 0000000   0.0000 264.0000 14.15679949    15
CTC1_L_00133008-04
1 10031U 23087NU  26075.70031250  .00000000  00000+0  00000-0 0  9992
2 10031  45.0000  84.0000 0000000   0.0000 354.0000 14.15679949    16
CTC1_L_00133009-01
1 10032U 26470VF  26075.70031250  .00000000  00000+0  00000-0 0  9992
2 10032  45.0000  96.0000 0000000   0.0000  96.0000 14.15679949    13
CTC1_L_00133009-02
1 10033U 26049GU  26075.70031250  .00000000  00000+0  00000-0 0  9995
2 10033  45.0000  96.0000 0000000   0.0000 186.0000 14.15679949    14
CTC1_L_00133009-03
1 10034U 22408MQ  26075.70031250  .00000000  00000+0  00000-0 0  9991
2 10034  45.0000  96.0000 0000000   0.0000 276.0000 14.15679949    15
CTC1_L_00133009-04
1 10035U 24114FJ  26075.70031250  .00000000  00000+0  00000-0 0  9998
2 10035  45.0000  96.0000 0000000   0.0000   6.0000 14.15679949    17
CTC1_L_00133010-01
1 10036U 26725CY  26075.70031250  .00000000  00000+0  00000-0 0  9999
2 10036  45.0000 108.0000 0000000   0.0000 108.0000 14.15679949    15
CTC1_L_00133010-02
1 10037U 25615TT  26075.70031250  .00000000  00000+0  00000-0 0  9997
2 10037  45.0000 108.0000 0000000   0.0000 198.0000 14.15679949    15
CTC1_L_00133010-03
1 10038U 26600RF  26075.70031250  .00000000  00000+0  00000-0 0  9993
2 10038  45.0000 108.0000 0000000   0.0000 288.0000 14.15679949    16
CTC1_L_00133010-04
1 10039U 24259ED  26075.70031250  .00000000  00000+0  00000-0 0  9992
2 10039  45.0000 108.0000 0000000   0.0000  18.0000 14.15679949    18
CTC1_L_00133011-01
1 10040U 23415SI  26075.70031250  .00000000  00000+0  00000-0 0  9997
2 10040  45.0000 120.0000 0000000   0.0000 120.0000 14.15679949    18
CTC1_L_00133011-02
1 10041U 22639MX  26075.70031250  .00000000  00000+0  00000-0 0  9995
2 10041  45.0000 120.0000 0000000   0.0000 210.0000 14.15679949    19
CTC1_L_00133011-03
1 10042U 24362VV  26075.70031250  .00000000  00000+0  00000-0 0  9991
2 10042  45.0000 120.0000 0000000   0.0000 300.0000 14.15679949    10
CTC1_L_00133011-04
1 10043U 25668KJ  26075.70031250  .00000000  00000+0  00000-0 0  9992
2 10043  45.0000 120.0000 0000000   0.0000  30.0000 14.15679949    11
CTC1_L_00133012-01
1 10044U 24531ZF  26075.70031250  .00000000  00000+0  00000-0 0  9991
2 10044  45.0000 132.0000 0000000   0.0000 132.0000 14.15679949    18
CTC1_L_00133012-02
1 10045U 24570QN  26075.70031250  .00000000  00000+0  00000-0 0  9995
2 10045  45.0000 132.0000 0000000   0.0000 222.0000 14.15679949    19
CTC1_L_00133012-03
1 10046U 23444LE  26075.70031250  .00000000  00000+0  00000-0 0  9995
2 10046  45.0000 132.0000 0000000   0.0000 312.0000 14.15679949    10
CTC1_L_00133012-04
1 10047U 23120RL  26075.70031250  .00000000  00000+0  00000-0 0  9997
2 10047  45.0000 132.0000 0000000   0.0000  42.0000 14.15679949    11
CTC1_L_00133013-01
1 10048U 23448RR  26075.70031250  .00000000  00000+0  00000-0 0  9991
2 10048  45.0000 144.0000 0000000   0.0000 144.0000 14.15679949    18
CTC1_L_00133013-02
1 10049U 25678IK  26075.70031250  .00000000  00000+0  00000-0 0  9999
2 10049  45.0000 144.0000 0000000   0.0000 234.0000 14.15679949    19
CTC1_L_00133013-03
1 10050U 26925OB  26075.70031250  .00000000  00000+0  00000-0 0  9997
2 10050  45.0000 144.0000 0000000   0.0000 324.0000 14.15679949    11
CTC1_L_00133013-04
1 10051U 26159QZ  26075.70031250  .00000000  00000+0  00000-0 0  9997
2 10051  45.0000 144.0000 0000000   0.0000  54.0000 14.15679949    12
CTC1_L_00133014-01
1 10052U 22357ZS  26075.70031250  .00000000  00000+0  00000-0 0  9994
2 10052  45.0000 156.0000 0000000   0.0000 156.0000 14.15679949    19
CTC1_L_00133014-02
1 10053U 22539VX  26075.70031250  .00000000  00000+0  00000-0 0  9997
2 10053  45.0000 156.0000 0000000   0.0000 246.0000 14.15679949    10
CTC1_L_00133014-03
1 10054U 25572OI  26075.70031250  .00000000  00000+0  00000-0 0  9998
2 10054  45.0000 156.0000 0000000   0.0000 336.0000 14.15679949    11
CTC1_L_00133014-04
1 10055U 22206ST  26075.70031250  .00000000  00000+0  00000-0 0  9990
2 10055  45.0000 156.0000 0000000   0.0000  66.0000 14.15679949    12
CTC1_L_00133015-01
1 10056U 23226AU  26075.70031250  .00000000  00000+0  00000-0 0  9994
2 10056  45.0000 168.0000 0000000   0.0000 168.0000 14.15679949    19
CTC1_L_00133015-02
1 10057U 23700PG  26075.70031250  .00000000  00000+0  00000-0 0  9992
2 10057  45.0000 168.0000 0000000   0.0000 258.0000 14.15679949    10
CTC1_L_00133015-03
1 10058U 25259BP  26075.70031250  .00000000  00000+0  00000-0 0  9994
2 10058  45.0000 168.0000 0000000   0.0000 348.0000 14.15679949    11
CTC1_L_00133015-04
1 10059U 26397EJ  26075.70031250  .00000000  00000+0  00000-0 0  9999
2 10059  45.0000 168.0000 0000000   0.0000  78.0000 14.15679949    12
CTC1_L_00133016-01
1 10060U 22845YR  26075.70031250  .00000000  00000+0  00000-0 0  9995
2 10060  45.0000 180.0000 0000000   0.0000 180.0000 14.15679949    12
CTC1_L_00133016-02
1 10061U 22916DG  26075.70031250  .00000000  00000+0  00000-0 0  9995
2 10061  45.0000 180.0000 0000000   0.0000 270.0000 14.15679949    13
